{"type": "FeatureCollection", "features": [ {"type": "Feature", "properties": {"norad_id": 38552, "name": "METEOSAT-10 (MSG-3)", "group": "weather", "lat": 3.719196543689025, "lon": 179.07594907593597, "alt_km": 35785.93895781447, "timestamp": "2025-12-02T07:10:08.751637+00:00", "meta": {"OBJECT_NAME": "METEOSAT-10 (MSG-3)", "OBJECT_ID": "2012-035B", "EPOCH": "2025-12-01T01:49:45.412320", "MEAN_MOTION": 1.00272105, "ECCENTRICITY": 6.165e-05, "INCLINATION": 4.1991, "RA_OF_ASC_NODE": 61.7388, "ARG_OF_PERICENTER": 218.2522, "MEAN_ANOMALY": 177.7466, "EPHEMERIS_TYPE": 0, "CLASSIFICATION_TYPE": "U", "NORAD_CAT_ID": 38552, "ELEMENT_SET_NO": 999, "REV_AT_EPOCH": 4887, "BSTAR": 0, "MEAN_MOTION_DOT": 1.5e-07, "MEAN_MOTION_DDOT": 0}, "tle": {"line1": "1 38552U 12035B   25335.07622005  .00000015  00000+0  00000+0 0  9998", "line2": "2 38552   4.1991  61.7388 0000616 218.2522 177.7466  1.00272105 48870"}}, "geometry": {"type": "Point", "coordinates": [179.07594907593597, 3.719196543689025]}}, {"type": "Feature", "properties": {"norad_id": 38771, "name": "METOP-B", "group": "weather", "lat": -29.111996107290416, "lon": 31.314554493816633, "alt_km": 828.1068357268296, "timestamp": "2025-12-02T07:10:08.751648+00:00", "meta": {"OBJECT_NAME": "METOP-B", "OBJECT_ID": "2012-049A", "EPOCH": "2025-12-01T19:28:53.652576", "MEAN_MOTION": 14.21401583, "ECCENTRICITY": 0.0002406, "INCLINATION": 98.6815, "RA_OF_ASC_NODE": 25.955, "ARG_OF_PERICENTER": 169.1284, "MEAN_ANOMALY": 190.9946, "EPHEMERIS_TYPE": 0, "CLASSIFICATION_TYPE": "U", "NORAD_CAT_ID": 38771, "ELEMENT_SET_NO": 999, "REV_AT_EPOCH": 68522, "BSTAR": 9.2513e-05, "MEAN_MOTION_DOT": 1.59e-06, "MEAN_MOTION_DDOT": 0}, "tle": {"line1": "1 38771U 12049A   25335.81173209  .00000159  00000+0  92513-4 0  9999", "line2": "2 38771  98.6815  25.9550 0002406 169.1284 190.9946 14.21401583685224"}}, "geometry": {"type": "Point", "coordinates": [31.314554493816633, -29.111996107290416]}}, {"type": "Feature", "properties": {"norad_id": 39216, "name": "INSAT-3D", "group": "weather", "lat": -0.9733829598329772, "lon": -51.56818781747293, "alt_km": 35783.22894183753, "timestamp": "2025-12-02T07:10:08.751660+00:00", "meta": {"OBJECT_NAME": "INSAT-3D", "OBJECT_ID": "2013-038B", "EPOCH": "2025-12-01T19:33:56.227104", "MEAN_MOTION": 1.00274703, "ECCENTRICITY": 0.0001693, "INCLINATION": 1.414, "RA_OF_ASC_NODE": 85.1176, "ARG_OF_PERICENTER": 151.3454, "MEAN_ANOMALY": 257.4514, "EPHEMERIS_TYPE": 0, "CLASSIFICATION_TYPE": "U", "NORAD_CAT_ID": 39216, "ELEMENT_SET_NO": 999, "REV_AT_EPOCH": 4510, "BSTAR": 0, "MEAN_MOTION_DOT": -3.17e-06, "MEAN_MOTION_DDOT": 0}, "tle": {"line1": "1 39216U 13038B   25335.81523411 -.00000317  00000+0  00000+0 0  9999", "line2": "2 39216   1.4140  85.1176 0001693 151.3454 257.4514  1.00274703 45105"}}, "geometry": {"type": "Point", "coordinates": [-51.56818781747293, -0.9733829598329772]}}, {"type": "Feature", "properties": {"norad_id": 39260, "name": "FENGYUN 3C", "group": "weather", "lat": 70.25735866586263, "lon": -70.05947189138648, "alt_km": 842.1792342022891, "timestamp": "2025-12-02T07:10:08.751671+00:00", "meta": {"OBJECT_NAME": "FENGYUN 3C", "OBJECT_ID": "2013-052A", "EPOCH": "2025-12-01T20:39:05.111712", "MEAN_MOTION": 14.15690705, "ECCENTRICITY": 0.001377, "INCLINATION": 98.4752, "RA_OF_ASC_NODE": 314.0717, "ARG_OF_PERICENTER": 228.8507, "MEAN_ANOMALY": 131.1481, "EPHEMERIS_TYPE": 0, "CLASSIFICATION_TYPE": "U", "NORAD_CAT_ID": 39260, "ELEMENT_SET_NO": 999, "REV_AT_EPOCH": 63064, "BSTAR": 8.7748e-05, "MEAN_MOTION_DOT": 1.31e-06, "MEAN_MOTION_DDOT": 0}, "tle": {"line1": "1 39260U 13052A   25335.86047583  .00000131  00000+0  87748-4 0  9992", "line2": "2 39260  98.4752 314.0717 0013770 228.8507 131.1481 14.15690705630646"}}, "geometry": {"type": "Point", "coordinates": [-70.05947189138648, 70.25735866586263]}}, {"type": "Feature", "properties": {"norad_id": 40069, "name": "METEOR-M 2", "group": "weather", "lat": -19.803042293246254, "lon": 131.20129667207593, "alt_km": 823.4316473841454, "timestamp": "2025-12-02T07:10:08.751681+00:00", "meta": {"OBJECT_NAME": "METEOR-M 2", "OBJECT_ID": "2014-037A", "EPOCH": "2025-12-01T21:47:01.473216", "MEAN_MOTION": 14.21379565, "ECCENTRICITY": 0.000467, "INCLINATION": 98.4891, "RA_OF_ASC_NODE": 313.9081, "ARG_OF_PERICENTER": 246.3385, "MEAN_ANOMALY": 113.7303, "EPHEMERIS_TYPE": 0, "CLASSIFICATION_TYPE": "U", "NORAD_CAT_ID": 40069, "ELEMENT_SET_NO": 999, "REV_AT_EPOCH": 59129, "BSTAR": 9.8635e-05, "MEAN_MOTION_DOT": 1.73e-06, "MEAN_MOTION_DDOT": 0}, "tle": {"line1": "1 40069U 14037A   25335.90765594  .00000173  00000+0  98635-4 0  9992", "line2": "2 40069  98.4891 313.9081 0004670 246.3385 113.7303 14.21379565591290"}}, "geometry": {"type": "Point", "coordinates": [131.20129667207593, -19.803042293246254]}}, {"type": "Feature", "properties": {"norad_id": 40267, "name": "HIMAWARI-8", "group": "weather", "lat": 0.013500888754699649, "lon": -40.39207191061417, "alt_km": 35782.11091589496, "timestamp": "2025-12-02T07:10:08.751692+00:00", "meta": {"OBJECT_NAME": "HIMAWARI-8", "OBJECT_ID": "2014-060A", "EPOCH": "2025-12-01T19:37:10.914816", "MEAN_MOTION": 1.00272633, "ECCENTRICITY": 0.0001214, "INCLINATION": 0.0427, "RA_OF_ASC_NODE": 139.3784, "ARG_OF_PERICENTER": 138.0148, "MEAN_ANOMALY": 228.5173, "EPHEMERIS_TYPE": 0, "CLASSIFICATION_TYPE": "U", "NORAD_CAT_ID": 40267, "ELEMENT_SET_NO": 999, "REV_AT_EPOCH": 4078, "BSTAR": 0, "MEAN_MOTION_DOT": -2.53e-06, "MEAN_MOTION_DDOT": 0}, "tle": {"line1": "1 40267U 14060A   25335.81748744 -.00000253  00000+0  00000+0 0  9990", "line2": "2 40267   0.0427 139.3784 0001214 138.0148 228.5173  1.00272633 40783"}}, "geometry": {"type": "Point", "coordinates": [-40.39207191061417, 0.013500888754699649]}}, {"type": "Feature", "properties": {"norad_id": 40367, "name": "FENGYUN 2G", "group": "weather", "lat": -2.059230833773924, "lon": -81.42381055480632, "alt_km": 35774.88856576419, "timestamp": "2025-12-02T07:10:08.751704+00:00", "meta": {"OBJECT_NAME": "FENGYUN 2G", "OBJECT_ID": "2014-090A", "EPOCH": "2025-12-01T19:25:27.039072", "MEAN_MOTION": 1.00268232, "ECCENTRICITY": 0.0003012, "INCLINATION": 5.1381, "RA_OF_ASC_NODE": 75.2239, "ARG_OF_PERICENTER": 193.0179, "MEAN_ANOMALY": 193.7823, "EPHEMERIS_TYPE": 0, "CLASSIFICATION_TYPE": "U", "NORAD_CAT_ID": 40367, "ELEMENT_SET_NO": 999, "REV_AT_EPOCH": 4002, "BSTAR": 0, "MEAN_MOTION_DOT": -2.82e-06, "MEAN_MOTION_DDOT": 0}, "tle": {"line1": "1 40367U 14090A   25335.80934073 -.00000282  00000+0  00000+0 0  9997", "line2": "2 40367   5.1381  75.2239 0003012 193.0179 193.7823  1.00268232 40027"}}, "geometry": {"type": "Point", "coordinates": [-81.42381055480632, -2.059230833773924]}}, {"type": "Feature", "properties": {"norad_id": 40732, "name": "METEOSAT-11 (MSG-4)", "group": "weather", "lat": 2.4090558534755098, "lon": -171.61154749379338, "alt_km": 35783.33760208483, "timestamp": "2025-12-02T07:10:08.751717+00:00", "meta": {"OBJECT_NAME": "METEOSAT-11 (MSG-4)", "OBJECT_ID": "2015-034A", "EPOCH": "2025-12-01T18:59:44.500992", "MEAN_MOTION": 1.00277288, "ECCENTRICITY": 2.74e-05, "INCLINATION": 2.7082, "RA_OF_ASC_NODE": 72.0283, "ARG_OF_PERICENTER": 159.2077, "MEAN_ANOMALY": 134.042, "EPHEMERIS_TYPE": 0, "CLASSIFICATION_TYPE": "U", "NORAD_CAT_ID": 40732, "ELEMENT_SET_NO": 999, "REV_AT_EPOCH": 523, "BSTAR": 0, "MEAN_MOTION_DOT": 8.5e-07, "MEAN_MOTION_DDOT": 0}, "tle": {"line1": "1 40732U 15034A   25335.79148728  .00000085  00000+0  00000+0 0  9994", "line2": "2 40732   2.7082  72.0283 0000274 159.2077 134.0420  1.00277288  5232"}}, "geometry": {"type": "Point", "coordinates": [-171.61154749379338, 2.4090558534755098]}}, {"type": "Feature", "properties": {"norad_id": 41105, "name": "ELEKTRO-L 2", "group": "weather", "lat": 6.187165841956269, "lon": 164.3724371304978, "alt_km": 35790.1319335231, "timestamp": "2025-12-02T07:10:08.751729+00:00", "meta": {"OBJECT_NAME": "ELEKTRO-L 2", "OBJECT_ID": "2015-074A", "EPOCH": "2025-12-01T15:35:14.200224", "MEAN_MOTION": 1.00269964, "ECCENTRICITY": 0.00039057, "INCLINATION": 6.1953, "RA_OF_ASC_NODE": 72.9577, "ARG_OF_PERICENTER": 196.803, "MEAN_ANOMALY": 20.3023, "EPHEMERIS_TYPE": 0, "CLASSIFICATION_TYPE": "U", "NORAD_CAT_ID": 41105, "ELEMENT_SET_NO": 999, "REV_AT_EPOCH": 3652, "BSTAR": 0, "MEAN_MOTION_DOT": -9.7e-07, "MEAN_MOTION_DDOT": 0}, "tle": {"line1": "1 41105U 15074A   25335.64946991 -.00000097  00000+0  00000+0 0  9999", "line2": "2 41105   6.1953  72.9577 0003905 196.8030  20.3023  1.00269964 36521"}}, "geometry": {"type": "Point", "coordinates": [164.3724371304978, 6.187165841956269]}}, {"type": "Feature", "properties": {"norad_id": 41752, "name": "INSAT-3DR", "group": "weather", "lat": -0.010019704948327636, "lon": -107.09275062268225, "alt_km": 35728.16075893645, "timestamp": "2025-12-02T07:10:08.751741+00:00", "meta": {"OBJECT_NAME": "INSAT-3DR", "OBJECT_ID": "2016-054A", "EPOCH": "2025-12-01T19:18:12.732192", "MEAN_MOTION": 1.00269656, "ECCENTRICITY": 0.0014361, "INCLINATION": 0.0629, "RA_OF_ASC_NODE": 89.9291, "ARG_OF_PERICENTER": 178.7732, "MEAN_ANOMALY": 165.8109, "EPHEMERIS_TYPE": 0, "CLASSIFICATION_TYPE": "U", "NORAD_CAT_ID": 41752, "ELEMENT_SET_NO": 999, "REV_AT_EPOCH": 3383, "BSTAR": 0, "MEAN_MOTION_DOT": -5.6e-07, "MEAN_MOTION_DDOT": 0}, "tle": {"line1": "1 41752U 16054A   25335.80431403 -.00000056  00000+0  00000+0 0  9996", "line2": "2 41752   0.0629  89.9291 0014361 178.7732 165.8109  1.00269656 33838"}}, "geometry": {"type": "Point", "coordinates": [-107.09275062268225, -0.010019704948327636]}}]}